{"epoch":1784799577,"count":18318,"objects":[{"id":"54679","name":"ONEWEB-0685","type":"PAYLOAD","l1":"1 54679U 22166AP  26203.83335648  .00020448  00000-0  48726-1 0  9997","l2":"2 54679  87.9229 236.8839 0004289  85.2119 340.3119 13.22703159  5197"},{"id":"54680","name":"ONEWEB-0712","type":"PAYLOAD","l1":"1 54680U 22166AQ  26203.47458396 -.00000209  00000-0 -58019-3 0  9998","l2":"2 54680  87.9078 221.7653 0001949 106.5213 253.6132 13.16594449176700"},{"id":"54681","name":"ONEWEB-0714","type":"PAYLOAD","l1":"1 54681U 22166AR  26203.82629328  .00000042  00000-0  69161-4 0  9997","l2":"2 54681  87.9225 236.8841 0002137 103.4114 256.7258 13.21825548176242"},{"id":"55140","name":"ONEWEB-0532","type":"PAYLOAD","l1":"1 55140U 23004A   26203.87438003  .00000049  00000-0  92699-4 0  9992","l2":"2 55140  87.9155 358.7653 0001819  84.1690 275.9649 13.17648823172281"},{"id":"55141","name":"ONEWEB-0533","type":"PAYLOAD","l1":"1 55141U 23004B   26203.83145803  .00000334  00000-0  89214-3 0  9997","l2":"2 55141  87.8974 343.5843 0001651  99.0045 261.1271 13.12443226172739"},{"id":"55142","name":"ONEWEB-0541","type":"PAYLOAD","l1":"1 55142U 23004C   26203.43140635 -.00000431  00000-0 -12519-2 0  9995","l2":"2 55142  87.8897  14.0428 0001960  88.5318 271.6034 13.11417664170560"},{"id":"55143","name":"ONEWEB-0543","type":"PAYLOAD","l1":"1 55143U 23004D   26203.29468548  .00000077  00000-0  16324-3 0  9999","l2":"2 55143  87.9194 328.4876 0001968 105.7643 254.3706 13.18687334174324"},{"id":"55144","name":"ONEWEB-0544","type":"PAYLOAD","l1":"1 55144U 23004E   26203.74320309 -.00000006  00000-0 -49185-4 0  9998","l2":"2 55144  87.9196 328.3982 0002104 101.4541 258.6828 13.18684780174387"},{"id":"55145","name":"ONEWEB-0560","type":"PAYLOAD","l1":"1 55145U 23004F   26203.73646501 -.00000012  00000-0 -62611-4 0  9999","l2":"2 55145  87.9194 328.3890 0002128 103.5176 256.6194 13.18686216174398"},{"id":"55146","name":"ONEWEB-0565","type":"PAYLOAD","l1":"1 55146U 23004G   26203.35033775  .00000022  00000-0  23679-4 0  9991","l2":"2 55146  87.9185 328.4900 0002223  90.8514 269.2873 13.18685241174337"},{"id":"55147","name":"ONEWEB-0567","type":"PAYLOAD","l1":"1 55147U 23004H   26203.79884395  .00000008  00000-0 -13625-4 0  9997","l2":"2 55147  87.9194 328.3884 0002244  96.5910 263.5478 13.18684498174391"},{"id":"55148","name":"ONEWEB-0569","type":"PAYLOAD","l1":"1 55148U 23004J   26203.73542618 -.00000061  00000-0 -20130-3 0  9999","l2":"2 55148  87.8990 313.1493 0002801 106.1511 253.9927 13.13471016174844"},{"id":"55149","name":"ONEWEB-0570","type":"PAYLOAD","l1":"1 55149U 23004K   26203.33515795  .00000059  00000-0  11779-3 0  9996","l2":"2 55149  87.9194 328.4779 0001893  85.6944 274.4405 13.18685201174329"},{"id":"55150","name":"ONEWEB-0571","type":"PAYLOAD","l1":"1 55150U 23004L   26203.78368462 -.00000022  00000-0 -89263-4 0  9990","l2":"2 55150  87.9193 328.3884 0003142  93.6372 266.5120 13.18685709174395"},{"id":"55151","name":"ONEWEB-0572","type":"PAYLOAD","l1":"1 55151U 23004M   26203.90558940  .00000108  00000-0  24624-3 0  9999","l2":"2 55151  87.9157 358.7608 0001938  91.0262 269.1091 13.17648927172189"},{"id":"55152","name":"ONEWEB-0573","type":"PAYLOAD","l1":"1 55152U 23004N   26203.77692756 -.00000001  00000-0 -36486-4 0  9993","l2":"2 55152  87.9194 328.3916 0002712  90.5270 269.6173 13.18684018174382"}]}